[{"OBJECT_NAME":"UMBRA-07","OBJECT_ID":"2023-174AT","EPOCH":"2026-03-09T17:14:20.565312","MEAN_MOTION":15.07174057,"ECCENTRICITY":0.00041314,"INCLINATION":97.3902,"RA_OF_ASC_NODE":128.3323,"ARG_OF_PERICENTER":75.5473,"MEAN_ANOMALY":284.6213,"EPHEMERIS_TYPE":0,"CLASSIFICATION_TYPE":"U","NORAD_CAT_ID":58297,"ELEMENT_SET_NO":999,"REV_AT_EPOCH":12842,"BSTAR":0.0008461425,"MEAN_MOTION_DOT":0.00012685,"MEAN_MOTION_DDOT":0},{"OBJECT_NAME":"STARLINK-35044","OBJECT_ID":"2025-200S","EPOCH":"2026-03-09T17:02:41.337888","MEAN_MOTION":15.05646584,"ECCENTRICITY":0.00010278,"INCLINATION":97.6024,"RA_OF_ASC_NODE":139.8141,"ARG_OF_PERICENTER":95.1617,"MEAN_ANOMALY":264.9727,"EPHEMERIS_TYPE":0,"CLASSIFICATION_TYPE":"U","NORAD_CAT_ID":65536,"ELEMENT_SET_NO":999,"REV_AT_EPOCH":2913,"BSTAR":0.00015199344,"MEAN_MOTION_DOT":2.133e-5,"MEAN_MOTION_DDOT":0}]
