UMBRA-07                
1 58297U 23174AT  26068.71829358  .00012685  00000+0  84614-3 0  9990
2 58297  97.3902 128.3323 0004131  75.5473 284.6213 15.07174057128425
STARLINK-35044          
1 65536U 25200S   26068.71020067  .00002133  00000+0  15199-3 0  9995
2 65536  97.6024 139.8141 0001028  95.1617 264.9727 15.05646584 29138
